[{"OBJECT_NAME":"STARLINK-32796","OBJECT_ID":"2025-014E","EPOCH":"2026-03-09T05:51:33.518016","MEAN_MOTION":15.27587037,"ECCENTRICITY":8.861e-5,"INCLINATION":42.9965,"RA_OF_ASC_NODE":156.5235,"ARG_OF_PERICENTER":178.9526,"MEAN_ANOMALY":181.1328,"EPHEMERIS_TYPE":0,"CLASSIFICATION_TYPE":"U","NORAD_CAT_ID":62739,"ELEMENT_SET_NO":999,"REV_AT_EPOCH":6319,"BSTAR":0.0015179792,"MEAN_MOTION_DOT":0.00041755,"MEAN_MOTION_DDOT":0},{"OBJECT_NAME":"HERMES-2","OBJECT_ID":"2025-052AK","EPOCH":"2026-03-09T22:17:00.130272","MEAN_MOTION":15.28021069,"ECCENTRICITY":0.00063399,"INCLINATION":97.4004,"RA_OF_ASC_NODE":324.4926,"ARG_OF_PERICENTER":99.416,"MEAN_ANOMALY":260.7796,"EPHEMERIS_TYPE":0,"CLASSIFICATION_TYPE":"U","NORAD_CAT_ID":63243,"ELEMENT_SET_NO":999,"REV_AT_EPOCH":5485,"BSTAR":0.00034839454,"MEAN_MOTION_DOT":9.456e-5,"MEAN_MOTION_DDOT":0}]
